#dP2018  1 19  0  0  0.00000000      96 __u+U ITR00 FIT  IAC
## 1984 432000.00000000   900.00000000 58137 0.0000000000000
+   88   C01C02C03C04C05C06C07C08C09C10C11C12C13C14E01E02E03
+        E04E05E07E08E09E11E12E14E18E19E24E26E30G01G02G03G04
+        G05G06G07G08G09G10G11G12G13G14G15G16G17G18G19G20G21
+        G22G23G24G25G26G27G28G29G30G31G32J01J02J03R01R02R03
+        R04R05R06R07R08R09R10R11R13R14R15R16R17R18R19R20R21
+        R22R23R24  0  0  0  0  0  0  0  0  0  0  0  0  0  0
++         0  0  0  0  0  0  0  0  0  0  0  0  0  0  0  0  0
++         0  0  0  0  0  0  0  0  0  0  0  0  0  0  0  0  0
++         0  0  0  0  0  0  0  0  0  0  0  0  0  0  0  0  0
++         0  0  0  0  0  0  0  0  0  0  0  0  0  0  0  0  0
++         0  0  0  0  0  0  0  0  0  0  0  0  0  0  0  0  0
++         0  0  0  0  0  0  0  0  0  0  0  0  0  0  0  0  0
%c M  cc GPS ccc cccc cccc cccc cccc ccccc ccccc ccccc ccccc
%c cc cc ccc ccc cccc cccc cccc cccc ccccc ccccc ccccc ccccc
%f  0.0000000  0.000000000  0.00000000000  0.000000000000000
%f  0.0000000  0.000000000  0.00000000000  0.000000000000000
%i    0    0    0    0      0      0      0      0         0
%i    0    0    0    0      0      0      0      0         0
/*                                                          
/*   RSA / INFORMATION & ANALYSIS CENTER (IAC) OF MCC       
/*   ULTRA-RAPID DETERMINATION                              
/* PCV:IGS14_1977 OL/AL:FES2004  NONE     YN ORB:CoN CLK:CoN
*  2018 01 19  2  0  0.00000000
PC01 -32293.538898  27082.762800  -1107.475529    257.219884
PC02   4376.989460  41924.362208    546.912419   -164.135375
PC03 -14739.490425  39493.963943   -776.604307   -258.032100
PC04 -39617.971616  14354.628473   -741.104694   -185.086956
PC05  21848.019768  36055.809163    817.511081 999999.999999
PC06  -8433.896245  24977.879714  33189.698840   -675.533642
PC07 -24944.850527  26332.371557 -21703.598350   -279.623349
PC08 -14668.994289  38130.832831  -9892.085426    122.808779
PC09   5386.433056  32546.454951  26566.759804   -489.142430
PC10  -9559.556248  27796.563708 -30222.353200     46.158686
PC11   2889.828936  27427.586984  -3904.425039   -358.002273
PC12  -9654.395883  17302.200527 -19549.827698    372.444167
PC13  -5822.417969  41442.235619   4005.301862   -154.268771
PC14   2644.003780  17070.990967  21975.102222    149.626318
PE01  25997.171141   -769.201243 -14133.131901   -256.384825
PE02 -25995.663772    774.042506  14126.893998      2.125802
PE03 -25600.499681 -10343.708374  10675.481666     10.921700
PE04  17528.192186  -6930.823797 -22826.445209     41.278551
PE05 -18690.393783 -21600.598234  -7761.311802    338.973500
PE07    861.160271  20198.285126  21620.468606     99.514837
PE08 -17404.331049   6965.035065  22906.878911   6658.640103
PE09  -1087.841385 -20064.359082 -21737.442102   6899.571777
PE11   4825.888296 -29154.920649   1565.324880   1852.897143
PE12  14863.433279 -17704.487859  18490.133591   3312.704057
PE14  17457.852215  12059.504939  13836.407280   6645.529835
PE18 -21070.347655   -566.428403 -23395.225136   6493.438708
PE19  25617.995790  11774.766128  -9031.248444     18.496381
PE24  10373.816110 -18656.881905  20509.155504   6909.083324
PE26   7854.650982  23604.781780  16042.814339   6370.063934
PE30 -25787.987259  13753.438989  -4650.643568   6148.732364
PG01  13426.189200 -22648.368481  -2132.098170    -24.234458
PG02 -18463.887673   7585.186664 -16835.630889    224.424335
PG03  11532.178696 -13241.991820 -19931.744545     -7.394575
PG04  23235.828482   8802.392172 -10009.650122     32.549343
PG05 -25965.209039   2744.697532   5332.961930    -16.589096
PG06 -14423.921288  -5112.572217 -21677.401934    414.831168
PG07   1330.475936 -21300.708290  15723.904559    249.532686
PG08  10309.164793 -12063.907602  21336.508392    -88.128166
PG09  -7040.480079 -24640.057558  -7002.304043    494.234019
PG10  19709.625844  11036.443138  14117.113193    148.062913
PG11   9143.682310 -24079.162283   6199.401619   -734.340905
PG12 -14362.034280  11154.360285 -19455.066414    354.789579
PG13 -14771.291827   3096.986566  21735.078485    -95.385247
PG14  16971.423143  13260.632663 -15374.966216    -92.609297
PG15  -9401.472060  13886.738606  20315.626731   -357.324214
PG16  26043.076291   -349.420600   6101.281532     33.833827
PG17 -14806.199052 -20494.043484  -7977.907620   -129.857312
PG18   8789.602615  15402.661249  20416.050192    633.525870
PG19 -16499.765960 -14164.819397 -15384.770816   -462.805532
PG20 -13202.739665  14105.680484  18061.275152    498.662976
PG21   2238.532097  20685.305930  17286.660552   -440.241530
PG22  18528.872835 -11260.500418 -15113.530643   -261.685980
PG23   2678.374818 -20486.090847 -16186.182283   -219.076366
PG24 -14474.877753  22042.991549   1242.558467    -44.952425
PG25    155.086534  14996.148303 -22089.356217   -524.601759
PG26  25787.594166   4553.140225  -4818.046505   -282.321171
PG27  16511.147025   1618.680427  20738.166339    363.282131
PG28 -15691.991503 -13706.462463  17081.768462    681.065575
PG29   2505.699367  24171.449443 -10750.811726    509.134432
PG30  -6213.725634 -16056.375568  20190.270314    111.340115
PG31  15264.774412   4063.264058 -21359.637168    147.691049
PG32  16508.875758  18920.987771  -8738.617772   -532.951166
PJ01 -29710.325800  23445.100880  23700.663097   -148.525803
PJ02 -34049.077602  24804.566258   4047.388319     -0.002151
PJ03 -20092.871978  22268.220006 -24966.025305     -0.240153
PR01   8485.589625  14840.705622  18920.746983     20.856481
PR02  21821.263283  13086.772757   2161.945413    290.874711
PR03  20622.524063   3262.477560 -14650.951756    121.746560
PR04   6925.458731  -8698.484326 -22949.060104    246.533577
PR05 -10074.369274 -15116.203311 -17924.942654   -232.384734
PR06 -22239.239117 -12399.866894  -1267.817387    125.418118
PR07 -20389.052506  -2941.025381  15046.959148    -27.840824
PR08  -7548.578876   8349.005847  22934.206115    -27.006486
PR09 -14219.550645  -3296.781608  20949.058486     47.665325
PR10 -22499.204728   9135.456485   7911.770694     16.231897
PR11 -17392.886565  15835.735849  -9898.529292    -19.751071
PR13  14733.562562   2253.206116 -20717.161293     -6.642007
PR14  22447.634978  -8903.091784  -8195.934964     23.965226
PR15  19470.040287 -15159.511911   6682.036938     -5.371881
PR16   2618.360697 -13605.317187  21423.956353     83.581027
PR17  10592.990490  -3399.416611  22971.187858    102.142674
PR18   6449.858826 -19690.594758  14854.258910    181.602221
PR19   -900.569298 -25412.553948  -2017.344913    -41.748698
PR20  -8346.572925 -15435.838054 -18478.572880   -323.917891
PR21 -10484.792999   3596.229201 -22964.791227     19.424106
PR22  -5744.329107  21039.424425 -13327.820277    -11.440385
PR23   2843.203592  24781.150951   5342.741936    131.093249
PR24   8807.487195  14788.910056  18812.850768   -161.275968
EOF
